CSS (TIANHE)            
1 48274U 21035A   24278.54831474  .00069080  00000+0  71140-3 0  9993
2 48274  41.4657 136.1908 0002817 114.0153 246.0982 15.63885645196205
